OBJECT_NAME,OBJECT_ID,EPOCH,MEAN_MOTION,ECCENTRICITY,INCLINATION,RA_OF_ASC_NODE,ARG_OF_PERICENTER,MEAN_ANOMALY,EPHEMERIS_TYPE,CLASSIFICATION_TYPE,NORAD_CAT_ID,ELEMENT_SET_NO,REV_AT_EPOCH,BSTAR,MEAN_MOTION_DOT,MEAN_MOTION_DDOT
SEEDS II (CO-66),2008-021J,2024-01-19T21:49:52.165920,15.00325185,.0009665,97.6789,352.4561,61.9102,298.3098,0,U,32791,999,85419,.87047E-3,.10878E-3,0
YUBILEINY (RS-30),2008-025A,2024-01-20T19:49:35.764896,12.43134540,.0019827,82.5033,181.7429,70.6377,289.6844,0,U,32953,999,71069,.29079E-3,.5E-6,0
FENGYUN 3A,2008-026A,2024-01-20T19:43:27.911712,14.18999101,.0009378,98.5860,332.3902,135.6033,224.5896,0,U,32958,999,81092,.1747E-3,.322E-5,0
HUANJING 1A (HJ-1A),2008-041A,2024-01-20T18:47:15.181440,14.79165720,.0021629,97.6360,35.1859,132.6954,227.6085,0,U,33320,999,82841,.32165E-3,.2346E-4,0
HUANJING 1B (HJ-1B),2008-041B,2024-01-20T19:52:55.651296,14.79673761,.0038715,97.6338,39.7377,178.5554,181.5777,0,U,33321,999,82843,.23843E-3,.1762E-4,0
SHIJIAN-6 03A (SJ-6 03A),2008-053A,2024-01-20T13:32:45.385152,15.01146005,.0020639,97.8759,19.3259,118.5823,241.7480,0,U,33408,999,83039,.50217E-3,.6403E-4,0
SHIJIAN-6 03B (SJ-6 03B),2008-053B,2024-01-20T19:47:35.068416,14.97791222,.0016912,97.8787,17.1738,92.4331,267.8827,0,U,33409,999,83094,.24074E-3,.2774E-4,0
CHUANGXIN 1-02 (CX-1-02),2008-056B,2024-01-20T19:29:16.876896,14.29734568,.0014093,98.6846,41.3643,193.1743,166.9072,0,U,33434,999,79346,.96732E-4,.204E-5,0
PRISM (HITOMI),2009-002B,2024-01-20T13:54:26.495712,15.12557314,.0014916,98.2288,56.1114,38.9489,321.2811,0,U,33493,999,81653,.10962E-2,.19128E-3,0
STARS (KUKAI),2009-002G,2024-01-20T15:03:37.499040,14.83844239,.0010207,98.1260,292.0807,161.7209,198.4374,0,U,33498,999,80763,.69131E-3,.5685E-4,0
KKS-1 (KISEKI),2009-002H,2024-01-20T18:54:47.643552,14.77980365,.0007276,98.1533,280.7131,245.8676,114.1774,0,U,33499,999,80662,.38511E-3,.2725E-4,0
NOAA 19,2009-005A,2024-01-20T19:22:53.085504,14.12910348,.0013627,99.0710,74.8977,354.4553,5.6465,0,U,33591,999,77067,.1904E-3,.309E-5,0
YAOGAN 6,2009-021A,2024-01-20T20:07:38.494272,15.41753691,.0020272,97.1535,350.3722,8.1204,352.0367,0,U,34839,999,82055,.44594E-3,.18929E-3,0
UK-DMC 2,2009-041C,2024-01-20T18:44:17.096352,14.72775620,.000127,97.7565,174.8012,99.9286,260.2066,0,U,35683,999,77716,.28383E-3,.1767E-4,0
METEOR-M 1,2009-049A,2024-01-20T19:34:30.782784,14.22619437,.0002166,98.6126,345.2575,2.3265,357.7922,0,U,35865,999,74447,.14815E-3,.288E-5,0
OCEANSAT-2,2009-051A,2024-01-20T18:54:45.254592,13.99421697,.0016794,98.2880,83.7726,191.5444,168.5339,0,U,35931,999,75646,-.31908E-4,-.84E-6,0
SWISSCUBE,2009-051B,2024-01-20T14:14:50.648928,14.58452746,.0008433,98.4924,260.8262,60.4640,299.7398,0,U,35932,999,76093,.47042E-3,.2135E-4,0
BEESAT-1,2009-051C,2024-01-20T13:48:42.448320,14.58267761,.0006836,98.4850,261.9003,71.9222,288.2720,0,U,35933,999,76096,.40954E-3,.1844E-4,0
ITUPSAT1,2009-051E,2024-01-20T13:18:51.333984,14.57267601,.0009113,98.4952,261.7365,76.2913,283.9299,0,U,35935,999,76061,.39038E-3,.1718E-4,0
DMSP 5D-3 F18 (USA 210),2009-057A,2024-01-20T19:30:51.798528,14.13971890,.001028,98.7963,358.3132,226.1265,133.9059,0,U,35951,999,73539,.29297E-3,.513E-5,0
PROBA-2,2009-059B,2024-01-20T11:35:59.925408,14.53762604,.0014347,98.2252,206.4607,111.4938,248.7790,0,U,36037,999,75380,.17907E-3,.707E-5,0
YAOGAN 7,2009-069A,2024-01-20T14:51:56.973888,14.75916678,.0025417,98.1274,255.8100,347.6753,12.3831,0,U,36110,999,75997,.17447E-3,.1151E-4,0
XIWANG-1 (HOPE-1),2009-072B,2024-01-20T19:58:10.003008,13.16394082,.0008125,100.2730,343.1434,83.9529,276.2510,0,U,36122,999,67754,.13313E-3,.7E-7,0
RADUGA-1M 2,2010-002A,2024-01-20T17:32:42.867744,1.00273898,.0003259,1.3360,90.5060,187.1227,190.1055,0,U,36358,999,5120,0,-.181E-5,0
COSMOS 2463,2010-017A,2024-01-20T20:01:12.296640,13.71538765,.0037034,82.9617,175.0300,48.6709,63.1662,0,U,36519,999,68761,.99457E-4,.105E-5,0
CARTOSAT-2B,2010-035A,2024-01-20T17:57:54.339840,14.78668481,.0013219,97.8830,82.0820,153.9952,206.1926,0,U,36795,999,73011,.2045E-3,.145E-4,0
AISSAT 1,2010-035C,2024-01-20T14:08:31.479072,14.90053033,.0011643,98.2041,236.5609,73.9817,286.2681,0,U,36797,999,73316,.3894E-3,.3704E-4,0
TISAT 1,2010-035E,2024-01-20T14:40:06.872160,14.99449974,.0008489,98.1061,263.8187,346.9968,13.1034,0,U,36799,999,73497,.80548E-3,.9826E-4,0
YAOGAN 10,2010-038A,2024-01-20T18:58:48.570816,14.82402675,.0001638,97.9576,38.7378,86.5340,16.9551,0,U,36834,999,72701,.186E-3,.1437E-4,0
SHIJIAN-6 04B (SJ-6 04B),2010-051B,2024-01-20T20:30:00.764928,14.95512514,.0011745,97.8265,10.2704,13.8984,346.2557,0,U,37180,999,72423,.2638E-3,.2867E-4,0
