SEEDS II (CO-66)        
1 32791U 08021J   24019.90963155  .00010878  00000+0  87047-3 0  9999
2 32791  97.6789 352.4561 0009665  61.9102 298.3098 15.00325185854197
YUBILEINY (RS-30)       
1 32953U 08025A   24020.82610839  .00000050  00000+0  29079-3 0  9996
2 32953  82.5033 181.7429 0019827  70.6377 289.6844 12.43134540710695
FENGYUN 3A              
1 32958U 08026A   24020.82185083  .00000322  00000+0  17470-3 0  9994
2 32958  98.5860 332.3902 0009378 135.6033 224.5896 14.18999101810924
HUANJING 1A (HJ-1A)     
1 33320U 08041A   24020.78281460  .00002346  00000+0  32165-3 0  9992
2 33320  97.6360  35.1859 0021629 132.6954 227.6085 14.79165720828410
HUANJING 1B (HJ-1B)     
1 33321U 08041B   24020.82842189  .00001762  00000+0  23843-3 0  9993
2 33321  97.6338  39.7377 0038715 178.5554 181.5777 14.79673761828437
SHIJIAN-6 03A (SJ-6 03A)
1 33408U 08053A   24020.56441418  .00006403  00000+0  50217-3 0  9995
2 33408  97.8759  19.3259 0020639 118.5823 241.7480 15.01146005830394
SHIJIAN-6 03B (SJ-6 03B)
1 33409U 08053B   24020.82471144  .00002774  00000+0  24074-3 0  9993
2 33409  97.8787  17.1738 0016912  92.4331 267.8827 14.97791222830943
CHUANGXIN 1-02 (CX-1-02)
1 33434U 08056B   24020.81200089  .00000204  00000+0  96732-4 0  9998
2 33434  98.6846  41.3643 0014093 193.1743 166.9072 14.29734568793465
PRISM (HITOMI)          
1 33493U 09002B   24020.57947333  .00019128  00000+0  10962-2 0  9992
2 33493  98.2288  56.1114 0014916  38.9489 321.2811 15.12557314816536
STARS (KUKAI)           
1 33498U 09002G   24020.62751735  .00005685  00000+0  69131-3 0  9998
2 33498  98.1260 292.0807 0010207 161.7209 198.4374 14.83844239807635
KKS-1 (KISEKI)          
1 33499U 09002H   24020.78805143  .00002725  00000+0  38511-3 0  9999
2 33499  98.1533 280.7131 0007276 245.8676 114.1774 14.77980365806628
NOAA 19                 
1 33591U 09005A   24020.80755886  .00000309  00000+0  19040-3 0  9998
2 33591  99.0710  74.8977 0013627 354.4553   5.6465 14.12910348770675
YAOGAN 6                
1 34839U 09021A   24020.83863998  .00018929  00000+0  44594-3 0  9998
2 34839  97.1535 350.3722 0020272   8.1204 352.0367 15.41753691820557
UK-DMC 2                
1 35683U 09041C   24020.78075343  .00001767  00000+0  28383-3 0  9991
2 35683  97.7565 174.8012 0001270  99.9286 260.2066 14.72775620777163
METEOR-M 1              
1 35865U 09049A   24020.81563406  .00000288  00000+0  14815-3 0  9999
2 35865  98.6126 345.2575 0002166   2.3265 357.7922 14.22619437744475
OCEANSAT-2              
1 35931U 09051A   24020.78802378 -.00000084  00000+0 -31908-4 0  9995
2 35931  98.2880  83.7726 0016794 191.5444 168.5339 13.99421697756460
SWISSCUBE               
1 35932U 09051B   24020.59364177  .00002135  00000+0  47042-3 0  9997
2 35932  98.4924 260.8262 0008433  60.4640 299.7398 14.58452746760932
BEESAT-1                
1 35933U 09051C   24020.57549130  .00001844  00000+0  40954-3 0  9991
2 35933  98.4850 261.9003 0006836  71.9222 288.2720 14.58267761760960
ITUPSAT1                
1 35935U 09051E   24020.55476081  .00001718  00000+0  39038-3 0  9996
2 35935  98.4952 261.7365 0009113  76.2913 283.9299 14.57267601760617
DMSP 5D-3 F18 (USA 210) 
1 35951U 09057A   24020.81309952  .00000513  00000+0  29297-3 0  9999
2 35951  98.7963 358.3132 0010280 226.1265 133.9059 14.13971890735397
PROBA-2                 
1 36037U 09059B   24020.48333247  .00000707  00000+0  17907-3 0  9994
2 36037  98.2252 206.4607 0014347 111.4938 248.7790 14.53762604753808
YAOGAN 7                
1 36110U 09069A   24020.61940942  .00001151  00000+0  17447-3 0  9991
2 36110  98.1274 255.8100 0025417 347.6753  12.3831 14.75916678759978
XIWANG-1 (HOPE-1)       
1 36122U 09072B   24020.83206022  .00000007  00000+0  13313-3 0  9993
2 36122 100.2730 343.1434 0008125  83.9529 276.2510 13.16394082677542
RADUGA-1M 2             
1 36358U 10002A   24020.73105171 -.00000181  00000+0  00000+0 0  9990
2 36358   1.3360  90.5060 0003259 187.1227 190.1055  1.00273898 51204
COSMOS 2463             
1 36519U 10017A   24020.83417010  .00000105  00000+0  99457-4 0  9998
2 36519  82.9617 175.0300 0037034  48.6709  63.1662 13.71538765687614
CARTOSAT-2B             
1 36795U 10035A   24020.74854560  .00001450  00000+0  20450-3 0  9999
2 36795  97.8830  82.0820 0013219 153.9952 206.1926 14.78668481730118
AISSAT 1                
1 36797U 10035C   24020.58925323  .00003704  00000+0  38940-3 0  9996
2 36797  98.2041 236.5609 0011643  73.9817 286.2681 14.90053033733160
TISAT 1                 
1 36799U 10035E   24020.61119065  .00009826  00000+0  80548-3 0  9992
2 36799  98.1061 263.8187 0008489 346.9968  13.1034 14.99449974734972
YAOGAN 10               
1 36834U 10038A   24020.79083994  .00001437  00000+0  18600-3 0  9995
2 36834  97.9576  38.7378 0001638  86.5340  16.9551 14.82402675727012
SHIJIAN-6 04B (SJ-6 04B)
1 37180U 10051B   24020.85417552  .00002867  00000+0  26380-3 0  9995
2 37180  97.8265  10.2704 0011745  13.8984 346.2557 14.95512514724230
